ORBCOMM FM103           
1 40091U 14040F   25300.83064322  .00001039  00000+0  25841-3 0  9996
2 40091  47.0038 111.2797 0001862 185.0700 175.0167 14.58410638583467
ORBCOMM FM114           
1 41179U 15081A   25300.91706170  .00001038  00000+0  25803-3 0  9990
2 41179  47.0044  19.8493 0002908 243.6629 116.3959 14.58451123523848
ORBCOMM FM119           
1 41180U 15081B   25300.29445757  .00001071  00000+0  26536-3 0  9995
2 41180  47.0006 292.1401 0002007 288.6355  71.4312 14.58386332525001
ORBCOMM FM105           
1 41181U 15081C   25300.40116387  .00000428  00000+0  16507-3 0  9995
2 41181  47.0020 309.4743 0002111 220.2225 139.8499 14.45343842519871
ORBCOMM FM110           
1 41182U 15081D   25300.63446368  .00001426  00000+0  34051-3 0  9999
2 41182  47.0035  20.7090 0001403  97.3975 262.7071 14.58489967523672
ORBCOMM FM118           
1 41183U 15081E   25300.73616630  .00001242  00000+0  30142-3 0  9995
2 41183  47.0056  20.5027 0002006  26.8609 333.2380 14.58446645523791
ORBCOMM FM112           
1 41184U 15081F   25300.94610524  .00001257  00000+0  30426-3 0  9996
2 41184  46.9992 288.0884 0002158 254.6990 105.3657 14.58512290525048
ORBCOMM FM113           
1 41185U 15081G   25300.37516045  .00001085  00000+0  26769-3 0  9991
2 41185  47.0009 291.1336 0002044 265.1773  94.8880 14.58505192524948
